NORAD_CAT_ID,OBJECT_NAME,OBJECT_TYPE,EPOCH,MEAN_MOTION,ECCENTRICITY,INCLINATION,RA_OF_ASC_NODE,ARG_OF_PERICENTER,MEAN_ANOMALY,BSTAR,MEAN_MOTION_DOT,MEAN_MOTION_DDOT,TLE_LINE0,TLE_LINE1,TLE_LINE2,SEMIMAJOR_AXIS,PERIOD,APOGEE,PERIGEE,DECAYED
55269.0,STARLINK-5277,PAYLOAD,2023-01-24 16:00:00,15.94400723,0.0038787,69.9996,55.2051,163.8544,351.9259,-0.0021951,-0.00891129,0.00025026,0 STARLINK-5277,1 55269U 23010A   23024.66667824 -.00891129  25026-3 -21951-2 0  9999,2 55269  69.9996  55.2051 0038787 163.8544 351.9259 15.94400723  1302,6668.121999999999,90.316,315.85,264.123,0.0
55269.0,STARLINK-5277,PAYLOAD,2023-01-25 14:00:01,15.92769655,0.0029976,69.9994,52.5359,165.8561,207.1263,-0.0025504,-0.00919985,0.00026103,0 STARLINK-5277,1 55269U 23010A   23025.58334491 -.00919985  26103-3 -25504-2 0  9998,2 55269  69.9994  52.5359 0029976 165.8561 207.1263 15.92769655  1309,6672.673000000001,90.409,314.54,274.536,0.0
55269.0,STARLINK-5277,PAYLOAD,2023-01-25 16:00:01,15.92609107,0.0029511,69.9995,52.294,165.9128,324.7983,-0.002507,-0.00895636,0.00024799,0 STARLINK-5277,1 55269U 23010A   23025.66668981 -.00895636  24799-3 -25070-2 0  9994,2 55269  69.9995  52.2940 0029511 165.9128 324.7983 15.92609107  1454,6673.121999999999,90.418,314.68,275.29400000000004,0.0
55269.0,STARLINK-5277,PAYLOAD,2023-01-25 22:00:00,15.92157024,0.0026971,69.9998,51.5673,166.5048,316.849,-0.0025624,-0.00887804,0.00024287,0 STARLINK-5277,1 55269U 23010A   23025.91667824 -.00887804  24287-3 -25624-2 0  9992,2 55269  69.9998  51.5673 0026971 166.5048 316.8490 15.92157024  1302,6674.385,90.443,314.251,278.248,0.0
55269.0,STARLINK-5277,PAYLOAD,2023-01-26 00:00:00,15.92020353,0.0026528,70.0,51.3252,166.8997,73.9297,-0.0026659,-0.00915839,0.0002569,0 STARLINK-5277,1 55269U 23010A   23026.00001157 -.00915839  25690-3 -26659-2 0  9992,2 55269  70.0000  51.3252 0026528 166.8997  73.9297 15.92020353  1517,6674.767,90.451,314.339,278.925,0.0
55269.0,STARLINK-5277,PAYLOAD,2023-01-26 10:00:00,15.91264755,0.0023146,70.0002,50.1158,168.6293,298.9285,-0.0027386,-0.00897535,0.0002456,0 STARLINK-5277,1 55269U 23010A   23026.41667824 -.00897535  24560-3 -27386-2 0  9991,2 55269  70.0002  50.1158 0023146 168.6293 298.9285 15.91264755  1570,6676.88,90.494,314.199,283.29,0.0
55269.0,STARLINK-5277,PAYLOAD,2023-01-26 14:00:01,15.9097789,0.002134,69.9997,49.6318,170.9555,170.9756,-0.0028754,-0.00924879,0.00025889,0 STARLINK-5277,1 55269U 23010A   23026.58334491 -.00924879  25889-3 -28754-2 0  9997,2 55269  69.9997  49.6318 0021340 170.9555 170.9756 15.90977890  1305,6677.682,90.51,313.797,285.297,0.0
55269.0,STARLINK-5277,PAYLOAD,2023-01-26 18:00:00,15.90673902,0.0020386,70.0,49.1485,171.9258,44.2043,-0.0028903,-0.00913666,0.00025235,0 STARLINK-5277,1 55269U 23010A   23026.75001157 -.00913666  25235-3 -28903-2 0  9999,2 55269  70.0000  49.1485 0020386 171.9258  44.2043 15.90673902  1638,6678.533,90.528,314.013,286.783,0.0
55269.0,STARLINK-5277,PAYLOAD,2023-01-27 02:00:01,15.90089258,0.001741,70.0004,48.1832,175.9158,148.0663,-0.0030814,-0.00940427,0.00026467,0 STARLINK-5277,1 55269U 23010A   23027.08334491 -.00940427  26467-3 -30814-2 0  9993,2 55269  70.0004  48.1832 0017410 175.9158 148.0663 15.90089258  1685,6680.17,90.561,313.665,290.405,0.0
55269.0,STARLINK-5277,PAYLOAD,2023-01-27 08:00:01,15.89638196,0.0015885,70.0002,47.459,178.2792,136.1264,-0.0031465,-0.00936493,0.00026146,0 STARLINK-5277,1 55269U 23010A   23027.33334491 -.00936493  26146-3 -31465-2 0  9996,2 55269  70.0002  47.4590 0015885 178.2792 136.1264 15.89638196  1729,6681.433000000001,90.587,313.91200000000003,292.685,0.0
55269.0,STARLINK-5277,PAYLOAD,2023-01-27 14:00:01,15.89182902,0.0013875,69.9993,46.735,183.6216,120.8058,-0.0031819,-0.00923205,0.0002535,0 STARLINK-5277,1 55269U 23010A   23027.58334491 -.00923205  25350-3 -31819-2 0  9999,2 55269  69.9993  46.7350 0013875 183.6216 120.8058 15.89182902  1303,6682.71,90.613,313.847,295.302,0.0
55269.0,STARLINK-5277,PAYLOAD,2023-01-27 16:00:00,15.89033597,0.0013322,69.9997,46.4946,185.281,235.7286,-0.0031994,-0.00920765,0.0002519,0 STARLINK-5277,1 55269U 23010A   23027.66667824 -.00920765  25190-3 -31994-2 0  9991,2 55269  69.9997  46.4946 0013322 185.2810 235.7286 15.89033597  1775,6683.128000000001,90.621,313.896,296.09,0.0
55269.0,STARLINK-5277,PAYLOAD,2023-01-27 22:00:00,15.88583496,0.0011415999999999,70.0001,45.7718,192.3546,218.1368,-0.0032714,-0.00918676,0.00024975,0 STARLINK-5277,1 55269U 23010A   23027.91667824 -.00918676  24975-3 -32714-2 0  9998,2 55269  70.0001  45.7718 0011416 192.3546 218.1368 15.88583496  1818,6684.39,90.647,313.886,298.625,0.0
55269.0,STARLINK-5277,PAYLOAD,2023-01-28 14:00:01,15.87387799,0.0008813,69.9992,43.846,217.9883,42.4807,-0.0034812,-0.00841239,0.0,0 STARLINK-5277,1 55269U 23010A   23028.58334491 -.00841239  00000-0 -34812-2 0  9994,2 55269  69.9992  43.8460 0008813 217.9883  42.4807 15.87387799  1309,6687.747,90.715,315.506,303.718,0.0
55269.0,STARLINK-5277,PAYLOAD,2023-01-28 22:00:00,15.86792177,0.0008342,70.0,42.8853,237.5924,126.7892,-0.003613,-0.00846809,0.0,0 STARLINK-5277,1 55269U 23010A   23028.91667824 -.00846809  00000-0 -36130-2 0  9993,2 55269  70.0000  42.8853 0008342 237.5924 126.7892 15.86792177  1307,6689.42,90.749,316.865,305.705,0.0
55269.0,STARLINK-5277,PAYLOAD,2023-01-29 00:00:00,15.86632121,0.0008243,70.0002,42.6453,241.1341,239.1165,-0.0035442,-0.00825981,0.0,0 STARLINK-5277,1 55269U 23010A   23029.00001157 -.00825981  00000-0 -35442-2 0  9998,2 55269  70.0002  42.6453 0008243 241.1341 239.1165 15.86632121  1985,6689.87,90.758,317.249,306.221,0.0
55269.0,STARLINK-5277,PAYLOAD,2023-01-29 22:00:01,15.84974856,0.0008223,70.0001,40.0065,269.0172,42.8758,-0.0037456,-0.00806875,0.0,0 STARLINK-5277,1 55269U 23010A   23029.91668981 -.00806875  00000-0 -37456-2 0  9990,2 55269  70.0001  40.0065 0008223 269.0172  42.8758 15.84974856  1309,6694.533,90.853,321.902,310.893,0.0
55269.0,STARLINK-5277,PAYLOAD,2023-01-30 00:00:00,15.84853437,0.0007631,70.0002,39.7672,270.0339,157.1101,-0.0039986,-0.0085159,0.0,0 STARLINK-5277,1 55269U 23010A   23030.00001157 -.00851590  00000-0 -39986-2 0  9992,2 55269  70.0002  39.7672 0007631 270.0339 157.1101 15.84853437  2144,6694.874,90.86,321.848,311.631,0.0
55269.0,STARLINK-5277,PAYLOAD,2023-01-30 14:00:01,15.83814097,0.0006037,69.9995,38.0915,272.0717,241.1133,-0.0042625,-0.0086146,0.0,0 STARLINK-5277,1 55269U 23010A   23030.58334491 -.00861460  00000-0 -42625-2 0  9996,2 55269  69.9995  38.0915 0006037 272.0717 241.1133 15.83814097  1309,6697.803,90.92,323.711,315.625,0.0
55269.0,STARLINK-5277,PAYLOAD,2023-01-31 00:00:00,15.83051302,0.000404,70.0001,36.8972,281.1264,86.4651,-0.0042796,-0.00835408,0.0,0 STARLINK-5277,1 55269U 23010A   23031.00001157 -.00835408  00000-0 -42796-2 0  9996,2 55269  70.0001  36.8972 0004040 281.1264  86.4651 15.83051302  1306,6699.954,90.964,324.526,319.113,0.0
55269.0,STARLINK-5277,PAYLOAD,2023-01-31 02:00:01,15.8290412,0.0003742,70.0,36.6582,283.4139,198.9225,-0.0043293,-0.00838771,0.0,0 STARLINK-5277,1 55269U 23010A   23031.08334491 -.00838771  00000-0 -43293-2 0  9993,2 55269  70.0000  36.6582 0003742 283.4139 198.9225 15.82904120  2316,6700.37,90.972,324.742,319.727,0.0
55269.0,STARLINK-5277,PAYLOAD,2023-01-31 14:00:01,15.82011226,0.0003565,69.9994,35.2256,272.8384,177.0299,-0.0045498,-0.00844595,0.0,0 STARLINK-5277,1 55269U 23010A   23031.58334491 -.00844595  00000-0 -45498-2 0  9998,2 55269  69.9994  35.2256 0003565 272.8384 177.0299 15.82011226  1308,6702.891,91.023,327.145,322.366,0.0
55269.0,STARLINK-5277,PAYLOAD,2023-01-31 22:00:00,15.81408271,0.0003494,69.9998,34.2724,273.8421,273.4876,-0.0046388,-0.00837845,0.0,0 STARLINK-5277,1 55269U 23010A   23031.91667824 -.00837845  00000-0 -46388-2 0  9993,2 55269  69.9998  34.2724 0003494 273.8421 273.4876 15.81408271  2453,6704.594,91.058,328.802,324.117,0.0
55269.0,STARLINK-5277,PAYLOAD,2023-02-01 14:00:01,15.80223613,0.0003662,69.9993,32.3667,268.2973,111.7945,-0.0049926,-0.00852324,0.0,0 STARLINK-5277,1 55269U 23010A   23032.58334491 -.00852324  00000-0 -49926-2 0  9998,2 55269  69.9993  32.3667 0003662 268.2973 111.7945 15.80223613  1308,6707.945,91.126,332.266,327.353,0.0
55269.0,STARLINK-5277,PAYLOAD,2023-02-01 22:00:00,15.79613586,0.0003523,70.0002,31.4166,273.763,201.6424,-0.0050319,-0.00836792,0.0,0 STARLINK-5277,1 55269U 23010A   23032.91667824 -.00836792  00000-0 -50319-2 0  9993,2 55269  70.0002  31.4166 0003523 273.7630 201.6424 15.79613586  2608,6709.672,91.162,333.9,329.173,0.0
55269.0,STARLINK-5277,PAYLOAD,2023-02-02 14:00:01,15.78424697,0.0003557,69.9993,29.5159,267.1083,36.7584,-0.0053711,-0.00845404,0.0,0 STARLINK-5277,1 55269U 23010A   23033.58334491 -.00845404  00000-0 -53711-2 0  9997,2 55269  69.9993  29.5159 0003557 267.1083  36.7584 15.78424697  1302,6713.04,91.23,337.293,332.518,0.0
55269.0,STARLINK-5277,PAYLOAD,2023-02-03 02:00:01,15.77533237,0.0003622,69.9996,28.0929,259.7472,3.5827,-0.0056378,-0.0085189,0.0,0 STARLINK-5277,1 55269U 23010A   23034.08334491 -.00851890  00000-0 -56378-2 0  9991,2 55269  69.9996  28.0929 0003622 259.7472   3.5827 15.77533237  2792,6715.569,91.282,339.867,335.002,0.0
55269.0,STARLINK-5277,PAYLOAD,2023-02-03 14:00:01,15.76633955,0.0003427,69.9991,26.6725,264.2775,316.9066,-0.0058519,-0.00849624,0.0,0 STARLINK-5277,1 55269U 23010A   23034.58334491 -.00849624  00000-0 -58519-2 0  9997,2 55269  69.9991  26.6725 0003427 264.2775 316.9066 15.76633955  1304,6718.123,91.334,342.29,337.685,0.0
55269.0,STARLINK-5277,PAYLOAD,2023-02-03 22:00:00,15.7602378,0.0003531,70.0,25.7271,268.6291,43.5653,-0.0058739,-0.00831883,0.0,0 STARLINK-5277,1 55269U 23010A   23034.91667824 -.00831883  00000-0 -58739-2 0  9995,2 55269  70.0000  25.7271 0003531 268.6291  43.5653 15.76023780  1305,6719.856,91.369,344.094,339.349,0.0
